{
  "type": "FeatureCollection",
  "features": [
    {
      "type": "Feature",
      "properties": {
        "amenity": "hospital",
        "name": "District General Hospital"
      },
      "geometry": {
        "type": "Point",
        "coordinates": [
          22.7096,
          75.84769999999999
        ]
      }
    },
    {
      "type": "Feature",
      "properties": {
        "amenity": "hospital",
        "name": "City Multi-speciality Hospital"
      },
      "geometry": {
        "type": "Point",
        "coordinates": [
          22.7396,
          75.8877
        ]
      }
    }
  ]
}