{
  "type": "FeatureCollection",
  "features": [
    {
      "type": "Feature",
      "properties": {
        "amenity": "hospital",
        "name": "District General Hospital"
      },
      "geometry": {
        "type": "Point",
        "coordinates": [
          77.40259999999999,
          23.249899999999997
        ]
      }
    },
    {
      "type": "Feature",
      "properties": {
        "amenity": "hospital",
        "name": "City Multi-speciality Hospital"
      },
      "geometry": {
        "type": "Point",
        "coordinates": [
          77.4326,
          23.2899
        ]
      }
    }
  ]
}