{
  "type": "FeatureCollection",
  "features": [
    {
      "type": "Feature",
      "properties": {
        "landuse": "industrial",
        "name": "Industrial Area Phase 1"
      },
      "geometry": {
        "type": "Polygon",
        "coordinates": [
          [
            [
              77.4426,
              23.279899999999998
            ],
            [
              77.4726,
              23.279899999999998
            ],
            [
              77.4726,
              23.3099
            ],
            [
              77.4426,
              23.3099
            ],
            [
              77.4426,
              23.279899999999998
            ]
          ]
        ]
      }
    },
    {
      "type": "Feature",
      "properties": {
        "landuse": "construction",
        "name": "Metro Construction Site"
      },
      "geometry": {
        "type": "Polygon",
        "coordinates": [
          [
            [
              77.3926,
              23.249899999999997
            ],
            [
              77.40259999999999,
              23.249899999999997
            ],
            [
              77.40259999999999,
              23.2599
            ],
            [
              77.3926,
              23.2599
            ],
            [
              77.3926,
              23.249899999999997
            ]
          ]
        ]
      }
    }
  ]
}