{
  "type": "FeatureCollection",
  "features": [
    {
      "type": "Feature",
      "properties": {
        "amenity": "school",
        "name": "City Model School"
      },
      "geometry": {
        "type": "Point",
        "coordinates": [
          23.2699,
          77.4226
        ]
      }
    },
    {
      "type": "Feature",
      "properties": {
        "amenity": "school",
        "name": "Public High School"
      },
      "geometry": {
        "type": "Point",
        "coordinates": [
          23.2399,
          77.4326
        ]
      }
    },
    {
      "type": "Feature",
      "properties": {
        "amenity": "school",
        "name": "Greenwood School"
      },
      "geometry": {
        "type": "Point",
        "coordinates": [
          23.279899999999998,
          77.3926
        ]
      }
    }
  ]
}