{
  "type": "FeatureCollection",
  "features": [
    {
      "type": "Feature",
      "properties": {
        "highway": "primary",
        "name": "Main Ring Road"
      },
      "geometry": {
        "type": "LineString",
        "coordinates": [
          [
            24.1496,
            82.6247
          ],
          [
            24.2496,
            82.6247
          ],
          [
            24.2496,
            82.7247
          ],
          [
            24.1496,
            82.7247
          ],
          [
            24.1496,
            82.6247
          ]
        ]
      }
    },
    {
      "type": "Feature",
      "properties": {
        "highway": "trunk",
        "name": "Highway North-South"
      },
      "geometry": {
        "type": "LineString",
        "coordinates": [
          [
            24.1996,
            82.5747
          ],
          [
            24.1996,
            82.7747
          ]
        ]
      }
    }
  ]
}